{
  "type": "FeatureCollection",
  "features": [
    {
      "type": "Feature",
      "properties": {
        "norad_id": 43262,
        "name": "GAOFEN-1 04",
        "group": "resource",
        "lat": 25.658132562340157,
        "lon": -119.54501646480298,
        "alt_km": 639.8210978688066,
        "timestamp": "2025-12-24T16:52:41.157973+00:00",
        "meta_object_name": "GAOFEN-1 04",
        "meta_object_id": "2018-031D",
        "meta_epoch": "2025-12-24T08:03:01.659168",
        "meta_mean_motion": 14.7643022,
        "meta_eccentricity": 5.609e-05,
        "meta_inclination": 98.0789,
        "meta_ra_of_asc_node": 56.1747,
        "meta_arg_of_pericenter": 61.4817,
        "meta_mean_anomaly": 298.6449,
        "meta_ephemeris_type": 0,
        "meta_classification_type": "U",
        "meta_norad_cat_id": 43262,
        "meta_element_set_no": 999,
        "meta_rev_at_epoch": 41688,
        "meta_bstar": 0.0002191547,
        "meta_mean_motion_dot": 1.472e-05,
        "meta_mean_motion_ddot": 0,
        "tle_line1": "1 43262U 18031D   25358.33543587  .00001472  00000+0  21915-3 0  9995",
        "tle_line2": "2 43262  98.0789  56.1747 0000560  61.4817 298.6449 14.76430220416886"
      },
      "geometry": {
        "type": "Point",
        "coordinates": [
          -119.54501646480298,
          25.658132562340157
        ]
      }
    },
    {
      "type": "Feature",
      "properties": {
        "norad_id": 43437,
        "name": "SENTINEL-3B",
        "group": "resource",
        "lat": -16.605593114718225,
        "lon": 66.31042510686832,
        "alt_km": 807.7775836578176,
        "timestamp": "2025-12-24T16:52:41.157984+00:00",
        "meta_object_name": "SENTINEL-3B",
        "meta_object_id": "2018-039A",
        "meta_epoch": "2025-12-24T03:29:30.270336",
        "meta_mean_motion": 14.2673837,
        "meta_eccentricity": 0.00016049,
        "meta_inclination": 98.6251,
        "meta_ra_of_asc_node": 63.1665,
        "meta_arg_of_pericenter": 90.5457,
        "meta_mean_anomaly": 269.5907,
        "meta_ephemeris_type": 0,
        "meta_classification_type": "U",
        "meta_norad_cat_id": 43437,
        "meta_element_set_no": 999,
        "meta_rev_at_epoch": 39916,
        "meta_bstar": 7.7374467e-05,
        "meta_mean_motion_dot": 1.44e-06,
        "meta_mean_motion_ddot": 0,
        "tle_line1": "1 43437U 18039A   25358.14548924  .00000144  00000+0  77374-4 0  9992",
        "tle_line2": "2 43437  98.6251  63.1665 0001604  90.5457 269.5907 14.26738370399169"
      },
      "geometry": {
        "type": "Point",
        "coordinates": [
          66.31042510686832,
          -16.605593114718225
        ]
      }
    },
    {
      "type": "Feature",
      "properties": {
        "norad_id": 43461,
        "name": "GAOFEN-5 01",
        "group": "resource",
        "lat": -19.070517676117465,
        "lon": -35.17928364596238,
        "alt_km": 696.9052189886834,
        "timestamp": "2025-12-24T16:52:41.157995+00:00",
        "meta_object_name": "GAOFEN-5 01",
        "meta_object_id": "2018-043A",
        "meta_epoch": "2025-12-24T03:48:41.650560",
        "meta_mean_motion": 14.6042172,
        "meta_eccentricity": 5.026e-05,
        "meta_inclination": 98.4344,
        "meta_ra_of_asc_node": 321.3264,
        "meta_arg_of_pericenter": 252.0081,
        "meta_mean_anomaly": 108.1063,
        "meta_ephemeris_type": 0,
        "meta_classification_type": "U",
        "meta_norad_cat_id": 43461,
        "meta_element_set_no": 999,
        "meta_rev_at_epoch": 40614,
        "meta_bstar": 0.00010592787,
        "meta_mean_motion_dot": 4.64e-06,
        "meta_mean_motion_ddot": 0,
        "tle_line1": "1 43461U 18043A   25358.15881540  .00000464  00000+0  10593-3 0  9993",
        "tle_line2": "2 43461  98.4344 321.3264 0000502 252.0081 108.1063 14.60421720406149"
      },
      "geometry": {
        "type": "Point",
        "coordinates": [
          -35.17928364596238,
          -19.070517676117465
        ]
      }
    },
    {
      "type": "Feature",
      "properties": {
        "norad_id": 43484,
        "name": "GAOFEN-6",
        "group": "resource",
        "lat": -48.91543545493956,
        "lon": 71.61524241879611,
        "alt_km": 645.0823207421345,
        "timestamp": "2025-12-24T16:52:41.158005+00:00",
        "meta_object_name": "GAOFEN-6",
        "meta_object_id": "2018-048A",
        "meta_epoch": "2025-12-24T07:20:36.843936",
        "meta_mean_motion": 14.76586979,
        "meta_eccentricity": 0.00126105,
        "meta_inclination": 97.8015,
        "meta_ra_of_asc_node": 62.1842,
        "meta_arg_of_pericenter": 29.4178,
        "meta_mean_anomaly": 330.774,
        "meta_ephemeris_type": 0,
        "meta_classification_type": "U",
        "meta_norad_cat_id": 43484,
        "meta_element_set_no": 999,
        "meta_rev_at_epoch": 40758,
        "meta_bstar": 0.00016358894,
        "meta_mean_motion_dot": 1.094e-05,
        "meta_mean_motion_ddot": 0,
        "tle_line1": "1 43484U 18048A   25358.30598199  .00001094  00000+0  16359-3 0  9991",
        "tle_line2": "2 43484  97.8015  62.1842 0012610  29.4178 330.7740 14.76586979407589"
      },
      "geometry": {
        "type": "Point",
        "coordinates": [
          71.61524241879611,
          -48.91543545493956
        ]
      }
    },
    {
      "type": "Feature",
      "properties": {
        "norad_id": 43585,
        "name": "GAOFEN-11 01",
        "group": "resource",
        "lat": 7.57445866101691,
        "lon": 60.58257868233007,
        "alt_km": 421.30041049958163,
        "timestamp": "2025-12-24T16:52:41.158016+00:00",
        "meta_object_name": "GAOFEN-11 01",
        "meta_object_id": "2018-063A",
        "meta_epoch": "2025-12-24T07:32:45.958848",
        "meta_mean_motion": 15.49544871,
        "meta_eccentricity": 0.00038885,
        "meta_inclination": 97.1541,
        "meta_ra_of_asc_node": 61.1539,
        "meta_arg_of_pericenter": 252.2484,
        "meta_mean_anomaly": 107.8344,
        "meta_ephemeris_type": 0,
        "meta_classification_type": "U",
        "meta_norad_cat_id": 43585,
        "meta_element_set_no": 999,
        "meta_rev_at_epoch": 41321,
        "meta_bstar": 0.00038562641,
        "meta_mean_motion_dot": 0.00021209,
        "meta_mean_motion_ddot": 0,
        "tle_line1": "1 43585U 18063A   25358.31442082  .00021209  00000+0  38563-3 0  9991",
        "tle_line2": "2 43585  97.1541  61.1539 0003888 252.2484 107.8344 15.49544871413219"
      },
      "geometry": {
        "type": "Point",
        "coordinates": [
          60.58257868233007,
          7.57445866101691
        ]
      }
    },
    {
      "type": "Feature",
      "properties": {
        "norad_id": 43613,
        "name": "ICESAT-2",
        "group": "resource",
        "lat": -86.67514106948627,
        "lon": -78.96903547491658,
        "alt_km": 490.6378006839386,
        "timestamp": "2025-12-24T16:52:41.158026+00:00",
        "meta_object_name": "ICESAT-2",
        "meta_object_id": "2018-070A",
        "meta_epoch": "2025-12-23T22:24:04.787136",
        "meta_mean_motion": 15.28198972,
        "meta_eccentricity": 0.0003013,
        "meta_inclination": 92.004,
        "meta_ra_of_asc_node": 243.7581,
        "meta_arg_of_pericenter": 109.8386,
        "meta_mean_anomaly": 250.3188,
        "meta_ephemeris_type": 0,
        "meta_classification_type": "U",
        "meta_norad_cat_id": 43613,
        "meta_element_set_no": 999,
        "meta_rev_at_epoch": 40569,
        "meta_bstar": 0.00033244,
        "meta_mean_motion_dot": 9.134e-05,
        "meta_mean_motion_ddot": 0,
        "tle_line1": "1 43613U 18070A   25357.93338874  .00009134  00000+0  33244-3 0  9995",
        "tle_line2": "2 43613  92.0040 243.7581 0003013 109.8386 250.3188 15.28198972405699"
      },
      "geometry": {
        "type": "Point",
        "coordinates": [
          -78.96903547491658,
          -86.67514106948627
        ]
      }
    },
    {
      "type": "Feature",
      "properties": {
        "norad_id": 43719,
        "name": "HYSIS",
        "group": "resource",
        "lat": 73.77423718075252,
        "lon": 32.6911033800487,
        "alt_km": 625.8731953749439,
        "timestamp": "2025-12-24T16:52:41.158037+00:00",
        "meta_object_name": "HYSIS",
        "meta_object_id": "2018-096A",
        "meta_epoch": "2025-12-24T06:47:31.491168",
        "meta_mean_motion": 14.78676729,
        "meta_eccentricity": 8.603e-05,
        "meta_inclination": 98.0081,
        "meta_ra_of_asc_node": 61.2039,
        "meta_arg_of_pericenter": 57.5373,
        "meta_mean_anomaly": 302.5921,
        "meta_ephemeris_type": 0,
        "meta_classification_type": "U",
        "meta_norad_cat_id": 43719,
        "meta_element_set_no": 999,
        "meta_rev_at_epoch": 38157,
        "meta_bstar": 0.00025923544,
        "meta_mean_motion_dot": 1.848e-05,
        "meta_mean_motion_ddot": 0,
        "tle_line1": "1 43719U 18096A   25358.28300337  .00001848  00000+0  25924-3 0  9992",
        "tle_line2": "2 43719  98.0081  61.2039 0000860  57.5373 302.5921 14.78676729381570"
      },
      "geometry": {
        "type": "Point",
        "coordinates": [
          32.6911033800487,
          73.77423718075252
        ]
      }
    }
  ]
}